start=new Date('2021-11-04T00:00:00.000Z').valueOf();
sats=[{"ECCENTRICITY":"0.00018150","MEAN_ANOMALY":"293.5613","LAUNCH_DATE":"2020-01-29","MEAN_MOTION_DDOT":"0.0000000000000","PERIAPSIS":"545.971","INCLINATION":"53.0541","SEMIMAJOR_AXIS":"6925.363","OBJECT_TYPE":"PAYLOAD","ELEMENT_SET_NO":"999","EPOCH":"2021-11-03T08:12:53.820576","REV_AT_EPOCH":"9777","MEAN_MOTION_DOT":"-0.00000283","REF_FRAME":"TEME","CLASSIFICATION_TYPE":"U","OBJECT_ID":"2020-006AT","OBJECT_NAME":"STARLINK-1179","DECAY_DATE":null,"FILE":"3199758","MEAN_MOTION":"15.06395449","CENTER_NAME":"EARTH","COUNTRY_CODE":"US","MEAN_ELEMENT_THEORY":"SGP4","BSTAR":"-0.00000009244400","ARG_OF_PERICENTER":"66.5567","NORAD_CAT_ID":"45085","TIME_SYSTEM":"UTC","EPHEMERIS_TYPE":"0","PERIOD":"95.592","TLE_LINE2":"2 45085  53.0541 172.4895 0001815  66.5567 293.5613 15.06395449 97773","RCS_SIZE":"LARGE","GP_ID":"188825866","SITE":"AFETR","RA_OF_ASC_NODE":"172.4895","TLE_LINE1":"1 45085U 20006AT  21307.34228959 -.00000283  00000-0 -92444-7 0  9990","APOAPSIS":"548.484"},{"FILE":"3200165","MEAN_MOTION":"15.07189670","CLASSIFICATION_TYPE":"U","OBJECT_ID":"2020-006AU","OBJECT_NAME":"STARLINK-1181","DECAY_DATE":null,"NORAD_CAT_ID":"45086","ARG_OF_PERICENTER":"76.4296","BSTAR":"0.00049042000000","COUNTRY_CODE":"US","CENTER_NAME":"EARTH","MEAN_ELEMENT_THEORY":"SGP4","TIME_SYSTEM":"UTC","RA_OF_ASC_NODE":"167.8597","TLE_LINE1":"1 45086U 20006AU  21307.90645634  .00007187  00000-0  49042-3 0  9996","APOAPSIS":"546.491","PERIOD":"95.542","EPHEMERIS_TYPE":"0","GP_ID":"188856370","SITE":"AFETR","RCS_SIZE":"LARGE","TLE_LINE2":"2 45086  53.0018 167.8597 0002451  76.4296 283.6965 15.07189670 97785","MEAN_ANOMALY":"283.6965","LAUNCH_DATE":"2020-01-29","ECCENTRICITY":"0.00024510","MEAN_MOTION_DDOT":"0.0000000000000","PERIAPSIS":"543.098","ELEMENT_SET_NO":"999","EPOCH":"2021-11-03T21:45:17.827776","OBJECT_TYPE":"PAYLOAD","SEMIMAJOR_AXIS":"6922.929","INCLINATION":"53.0018","MEAN_MOTION_DOT":"0.00007187","REF_FRAME":"TEME","REV_AT_EPOCH":"9778"},{"CENTER_NAME":"EARTH","COUNTRY_CODE":"US","MEAN_ELEMENT_THEORY":"SGP4","NORAD_CAT_ID":"45087","ARG_OF_PERICENTER":"76.7460","BSTAR":"0.00005610900000","OBJECT_NAME":"STARLINK-1185","DECAY_DATE":null,"OBJECT_ID":"2020-006AV","CLASSIFICATION_TYPE":"U","FILE":"3200165","MEAN_MOTION":"15.06394745","GP_ID":"188857622","SITE":"AFETR","RCS_SIZE":"LARGE","TLE_LINE2":"2 45087  53.0536 170.1756 0001820  76.7460 283.3732 15.06394745 97857","EPHEMERIS_TYPE":"0","PERIOD":"95.592","TLE_LINE1":"1 45087U 20006AV  21307.85832319  .00000554  00000-0  56109-4 0  9993","APOAPSIS":"548.490","RA_OF_ASC_NODE":"170.1756","TIME_SYSTEM":"UTC","PERIAPSIS":"545.969","MEAN_MOTION_DDOT":"0.0000000000000","ECCENTRICITY":"0.00018200","LAUNCH_DATE":"2020-01-29","MEAN_ANOMALY":"283.3732","REV_AT_EPOCH":"9785","REF_FRAME":"TEME","MEAN_MOTION_DOT":"0.00000554","OBJECT_TYPE":"PAYLOAD","SEMIMAJOR_AXIS":"6925.365","INCLINATION":"53.0536","EPOCH":"2021-11-03T20:35:59.123616","ELEMENT_SET_NO":"999"},{"LAUNCH_DATE":"2020-01-29","MEAN_ANOMALY":"280.1949","ECCENTRICITY":"0.00017610","PERIAPSIS":"545.999","MEAN_MOTION_DDOT":"0.0000000000000","EPOCH":"2021-11-03T19:32:16.932768","ELEMENT_SET_NO":"999","OBJECT_TYPE":"PAYLOAD","SEMIMAJOR_AXIS":"6925.354","INCLINATION":"53.0531","REF_FRAME":"TEME","MEAN_MOTION_DOT":"0.00001546","REV_AT_EPOCH":"9784","MEAN_MOTION":"15.06398220","FILE":"3200165","DECAY_DATE":null,"OBJECT_NAME":"STARLINK-1183","OBJECT_ID":"2020-006AW","CLASSIFICATION_TYPE":"U","NORAD_CAT_ID":"45088","BSTAR":"0.00012267000000","ARG_OF_PERICENTER":"79.9239","CENTER_NAME":"EARTH","COUNTRY_CODE":"US","MEAN_ELEMENT_THEORY":"SGP4","TIME_SYSTEM":"UTC","TLE_LINE1":"1 45088U 20006AW  21307.81408487  .00001546  00000-0  12267-3 0  9993","APOAPSIS":"548.439","RA_OF_ASC_NODE":"170.3906","GP_ID":"188857873","SITE":"AFETR","RCS_SIZE":"LARGE","TLE_LINE2":"2 45088  53.0531 170.3906 0001761  79.9239 280.1949 15.06398220 97841","EPHEMERIS_TYPE":"0","PERIOD":"95.592"},{"REF_FRAME":"TEME","MEAN_MOTION_DOT":"0.00002030","REV_AT_EPOCH":"9786","EPOCH":"2021-11-03T21:13:07.398624","ELEMENT_SET_NO":"999","INCLINATION":"53.0537","OBJECT_TYPE":"PAYLOAD","SEMIMAJOR_AXIS":"6925.340","PERIAPSIS":"546.022","MEAN_MOTION_DDOT":"0.0000000000000","LAUNCH_DATE":"2020-01-29","MEAN_ANOMALY":"278.5530","ECCENTRICITY":"0.00017080","TLE_LINE1":"1 45089U 20006AX  21307.88411341  .00002030  00000-0  15510-3 0  9997","APOAPSIS":"548.388","RA_OF_ASC_NODE":"170.0749","RCS_SIZE":"LARGE","TLE_LINE2":"2 45089  53.0537 170.0749 0001708  81.5652 278.5530 15.06402896 97863","SITE":"AFETR","GP_ID":"188856621","EPHEMERIS_TYPE":"0","PERIOD":"95.592","TIME_SYSTEM":"UTC","BSTAR":"0.00015510000000","ARG_OF_PERICENTER":"81.5652","NORAD_CAT_ID":"45089","CENTER_NAME":"EARTH","COUNTRY_CODE":"US","MEAN_ELEMENT_THEORY":"SGP4","FILE":"3200165","MEAN_MOTION":"15.06402896","DECAY_DATE":null,"OBJECT_NAME":"STARLINK-1136","CLASSIFICATION_TYPE":"U","OBJECT_ID":"2020-006AX"},{"CLASSIFICATION_TYPE":"U","OBJECT_ID":"2020-006AY","DECAY_DATE":null,"OBJECT_NAME":"STARLINK-1176","MEAN_MOTION":"15.06396802","FILE":"3200165","CENTER_NAME":"EARTH","COUNTRY_CODE":"US","MEAN_ELEMENT_THEORY":"SGP4","ARG_OF_PERICENTER":"67.3423","BSTAR":"0.00010715000000","NORAD_CAT_ID":"45090","TIME_SYSTEM":"UTC","EPHEMERIS_TYPE":"0","PERIOD":"95.592","TLE_LINE2":"2 45090  53.0531 170.1487 0001643  67.3423 292.7740 15.06396802 97854","RCS_SIZE":"LARGE","GP_ID":"188856871","SITE":"AFETR","RA_OF_ASC_NODE":"170.1487","TLE_LINE1":"1 45090U 20006AY  21307.86568710  .00001315  00000-0  10715-3 0  9997","APOAPSIS":"548.361","ECCENTRICITY":"0.00016430","MEAN_ANOMALY":"292.7740","LAUNCH_DATE":"2020-01-29","MEAN_MOTION_DDOT":"0.0000000000000","PERIAPSIS":"546.086","INCLINATION":"53.0531","OBJECT_TYPE":"PAYLOAD","SEMIMAJOR_AXIS":"6925.358","ELEMENT_SET_NO":"999","EPOCH":"2021-11-03T20:46:35.365440","REV_AT_EPOCH":"9785","REF_FRAME":"TEME","MEAN_MOTION_DOT":"0.00001315"},{"RA_OF_ASC_NODE":"169.9725","APOAPSIS":"548.459","TLE_LINE1":"1 45092U 20006BA  21307.90622801  .00003160  00000-0  23088-3 0  9993","EPHEMERIS_TYPE":"0","PERIOD":"95.592","RCS_SIZE":"LARGE","TLE_LINE2":"2 45092  53.0530 169.9725 0001828  74.0512 286.0678 15.06406788 97856","SITE":"AFETR","GP_ID":"188857122","TIME_SYSTEM":"UTC","BSTAR":"0.00023088000000","ARG_OF_PERICENTER":"74.0512","NORAD_CAT_ID":"45092","CENTER_NAME":"EARTH","COUNTRY_CODE":"US","MEAN_ELEMENT_THEORY":"SGP4","FILE":"3200165","MEAN_MOTION":"15.06406788","CLASSIFICATION_TYPE":"U","OBJECT_ID":"2020-006BA","DECAY_DATE":null,"OBJECT_NAME":"STARLINK-1137","MEAN_MOTION_DOT":"0.00003160","REF_FRAME":"TEME","REV_AT_EPOCH":"9785","ELEMENT_SET_NO":"999","EPOCH":"2021-11-03T21:44:58.100064","INCLINATION":"53.0530","SEMIMAJOR_AXIS":"6925.328","OBJECT_TYPE":"PAYLOAD","MEAN_MOTION_DDOT":"0.0000000000000","PERIAPSIS":"545.927","MEAN_ANOMALY":"286.0678","LAUNCH_DATE":"2020-01-29","ECCENTRICITY":"0.00018280"},{"REF_FRAME":"TEME","MEAN_MOTION_DOT":"0.00000273","REV_AT_EPOCH":"9785","EPOCH":"2021-11-03T21:39:40.935168","ELEMENT_SET_NO":"999","INCLINATION":"53.0524","OBJECT_TYPE":"PAYLOAD","SEMIMAJOR_AXIS":"6925.365","PERIAPSIS":"545.920","MEAN_MOTION_DDOT":"0.0000000000000","LAUNCH_DATE":"2020-01-29","MEAN_ANOMALY":"288.1400","ECCENTRICITY":"0.00018920","TLE_LINE1":"1 45093U 20006BB  21307.90255712  .00000273  00000-0  37256-4 0  9992","APOAPSIS":"548.540","RA_OF_ASC_NODE":"169.9867","TLE_LINE2":"2 45093  53.0524 169.9867 0001892  71.9795 288.1400 15.06394580 97859","RCS_SIZE":"LARGE","SITE":"AFETR","GP_ID":"188857373","EPHEMERIS_TYPE":"0","PERIOD":"95.592","TIME_SYSTEM":"UTC","ARG_OF_PERICENTER":"71.9795","BSTAR":"0.00003725600000","NORAD_CAT_ID":"45093","MEAN_ELEMENT_THEORY":"SGP4","COUNTRY_CODE":"US","CENTER_NAME":"EARTH","MEAN_MOTION":"15.06394580","FILE":"3200165","OBJECT_NAME":"STARLINK-1142","DECAY_DATE":null,"OBJECT_ID":"2020-006BB","CLASSIFICATION_TYPE":"U"},{"LAUNCH_DATE":"2020-01-29","MEAN_ANOMALY":"285.2997","ECCENTRICITY":"0.00019660","PERIAPSIS":"545.843","MEAN_MOTION_DDOT":"0.0000000000000","EPOCH":"2021-11-03T07:41:03.316128","ELEMENT_SET_NO":"999","INCLINATION":"53.0523","OBJECT_TYPE":"PAYLOAD","SEMIMAJOR_AXIS":"6925.340","MEAN_MOTION_DOT":"0.00001303","REF_FRAME":"TEME","REV_AT_EPOCH":"9777","MEAN_MOTION":"15.06402865","FILE":"3199758","DECAY_DATE":null,"OBJECT_NAME":"STARLINK-1146","CLASSIFICATION_TYPE":"U","OBJECT_ID":"2020-006BC","ARG_OF_PERICENTER":"74.8209","BSTAR":"0.00010636000000","NORAD_CAT_ID":"45094","COUNTRY_CODE":"US","CENTER_NAME":"EARTH","MEAN_ELEMENT_THEORY":"SGP4","TIME_SYSTEM":"UTC","TLE_LINE1":"1 45094U 20006BC  21307.32017727  .00001303  00000-0  10636-3 0  9998","APOAPSIS":"548.566","RA_OF_ASC_NODE":"172.5842","TLE_LINE2":"2 45094  53.0523 172.5842 0001966  74.8209 285.2997 15.06402865 97772","RCS_SIZE":"LARGE","SITE":"AFETR","GP_ID":"188825867","EPHEMERIS_TYPE":"0","PERIOD":"95.592"},{"REV_AT_EPOCH":"9785","REF_FRAME":"TEME","MEAN_MOTION_DOT":"0.00000906","SEMIMAJOR_AXIS":"6925.368","OBJECT_TYPE":"PAYLOAD","INCLINATION":"53.0543","EPOCH":"2021-11-03T20:30:40.396608","ELEMENT_SET_NO":"999","PERIAPSIS":"546.027","MEAN_MOTION_DDOT":"0.0000000000000","ECCENTRICITY":"0.00017420","LAUNCH_DATE":"2020-01-29","MEAN_ANOMALY":"286.2855","GP_ID":"188856371","SITE":"AFETR","TLE_LINE2":"2 45095  53.0543 170.2035 0001742  73.8326 286.2855 15.06393602 97856","RCS_SIZE":"LARGE","EPHEMERIS_TYPE":"0","PERIOD":"95.593","APOAPSIS":"548.440","TLE_LINE1":"1 45095U 20006BD  21307.85463422  .00000906  00000-0  79763-4 0  9999","RA_OF_ASC_NODE":"170.2035","TIME_SYSTEM":"UTC","CENTER_NAME":"EARTH","COUNTRY_CODE":"US","MEAN_ELEMENT_THEORY":"SGP4","NORAD_CAT_ID":"45095","BSTAR":"0.00007976300000","ARG_OF_PERICENTER":"73.8326","DECAY_DATE":null,"OBJECT_NAME":"STARLINK-1147","CLASSIFICATION_TYPE":"U","OBJECT_ID":"2020-006BD","FILE":"3200165","MEAN_MOTION":"15.06393602"}];
